[{"OBJECT_NAME":"ASTROCAST 0.1","OBJECT_ID":"2018-099AS","EPOCH":"2026-03-09T17:36:01.452960","MEAN_MOTION":15.43006536,"ECCENTRICITY":0.00055661,"INCLINATION":97.4458,"RA_OF_ASC_NODE":144.5906,"ARG_OF_PERICENTER":207.917,"MEAN_ANOMALY":152.1779,"EPHEMERIS_TYPE":0,"CLASSIFICATION_TYPE":"U","NORAD_CAT_ID":43798,"ELEMENT_SET_NO":999,"REV_AT_EPOCH":39906,"BSTAR":0.00074613997,"MEAN_MOTION_DOT":0.00032915,"MEAN_MOTION_DDOT":0},{"OBJECT_NAME":"FLOCK 4Q-2","OBJECT_ID":"2023-174BS","EPOCH":"2026-03-09T22:26:57.301152","MEAN_MOTION":15.45032023,"ECCENTRICITY":0.00079502,"INCLINATION":97.3857,"RA_OF_ASC_NODE":155.3481,"ARG_OF_PERICENTER":138.165,"MEAN_ANOMALY":222.0207,"EPHEMERIS_TYPE":0,"CLASSIFICATION_TYPE":"U","NORAD_CAT_ID":58320,"ELEMENT_SET_NO":999,"REV_AT_EPOCH":13025,"BSTAR":0.00060928671,"MEAN_MOTION_DOT":0.00028766,"MEAN_MOTION_DDOT":0}]
